P/2010 H5 (Scotti),e,14.0685,24.8099,175.3093,7.157605,0.0514698,0.15382685,196.4948,09/23.0/2020,2000,g 13.0,2.0
# From MPC 98558
P/2010 J3 (McMillan),e,13.2902,106.4068,157.5799,8.969294,0.0366916,0.72736569,134.9103,09/23.0/2020,2000,g 11.0,4.0
# From MPC 84315
P/2010 JC81 (WISE),e,38.7081,30.8405,12.4473,8.111718,0.0426614,0.77658864,146.9723,09/23.0/2020,2000,g  9.0,4.0
# From MPC 74248
P/2010 T2 (PANSTARRS),e,7.9235,59.1091,353.8082,5.508627,0.0762323,0.32158145,262.3446,09/23.0/2020,2000,g 11.5,4.0
# From MPC 98558
P/2010 TO20 (LINEAR-Grauer),e,2.4793,43.2989,266.7620,5.828425,0.0700450,0.05440529,304.8284,09/23.0/2020,2000,g  9.0,4.0
# From MPC 82316
P/2010 U1 (Boattini),e,8.2141,280.7184,85.8859,6.512695,0.0593011,0.24787107,231.1035,09/23.0/2020,2000,g  9.5,4.0
# From MPEC 2020-R04
C/2010 U3 (Boattini),e,55.5191,43.0374,88.0737,2496,0.0000079,0.99661675,0.0000,02/25.9967/2019,2000,g  1.0,4.0
# From MPC 79021
P/2010 UH55 (Spacewatch),e,8.0480,233.0104,225.1846,6.650280,0.0574704,0.56358582,198.1685,09/23.0/2020,2000,g 11.0,4.0
# From MPC 75009
P/2010 WK (LINEAR),e,11.4003,11.3140,40.9964,5.759749,0.0713015,0.68971995,260.2712,09/23.0/2020,2000,g 14.5,2.0
# From MPC 82317
P/2011 A2 (Scotti),e,4.4752,54.6754,94.5360,3.105117,0.1801304,0.49939627,281.6974,09/23.0/2020,2000,g 16.5,4.0
# From MPC 84021
P/2011 C2 (Gibbs),e,10.8853,12.1233,161.0417,7.414212,0.0488210,0.26904305,155.5118,09/23.0/2020,2000,g  9.0,4.0
# From MPC 79866
P/2011 FR143 (Lemmon),e,15.9893,190.9501,350.1432,6.856097,0.0549021,0.45112470,191.6548,09/23.0/2020,2000,g 14.0,2.0
# From MPC 82317
P/2011 JB15 (Spacewatch-Boattini),e,19.1463,153.5989,110.9782,7.353379,0.0494281,0.31817931,156.4313,09/23.0/2020,2000,g  9.0,4.0
# From MPEC 2020-R04
C/2011 KP36 (Spacewatch),e,18.9838,173.3039,180.6422,38.84516,0.0040710,0.87439230,6.4299,09/23.0/2020,2000,g  4.5,4.0
# From MPC 87913
P/2011 N1 (ASH),e,35.7108,77.6046,330.3413,6.250481,0.0630716,0.54357093,192.3211,09/23.0/2020,2000,g 11.5,4.0
# From MPC 75714
P/2011 NO1 (Elenin),e,15.2490,295.7902,263.8339,5.522933,0.0759363,0.77494542,268.1242,09/23.0/2020,2000,g 15.0,4.0
# From MPC 82318
P/2011 P1 (McNaught),e,5.6573,4.2409,348.8847,7.469433,0.0482806,0.32684508,179.5940,09/23.0/2020,2000,g  9.0,4.0
# From MPC 77806
P/2011 Q3 (McNaught),e,6.0565,32.0245,310.9726,4.970415,0.0889437,0.53250737,298.1375,09/23.0/2020,2000,g 13.5,4.0
# From MPEC 2020-R04
P/2011 R3 (Novichonok-Gerke),e,19.2635,189.6283,225.2495,4.777234,0.0943929,0.27179114,290.5140,09/23.0/2020,2000,g 11.0,4.0
# From MPC 98558
P/2011 S1 (Gibbs),e,2.6837,218.9069,192.5265,8.588804,0.0391566,0.20010059,87.4935,09/23.0/2020,2000,g  8.0,4.0
# From MPEC 2020-R04
P/2011 U2 (Bressi),e,9.8867,263.1666,155.7630,4.885489,0.0912729,0.13526256,263.6810,09/23.0/2020,2000,g 10.0,4.0
# From MPC 79022
P/2011 UA134 (Spacewatch-PANSTARRS),e,10.4438,40.4275,32.4624,5.603345,0.0743076,0.62930194,240.3761,09/23.0/2020,2000,g 17.5,4.0
# From MPC 77406
P/2011 V1 (Boattini),e,7.3772,46.8518,269.2395,3.854588,0.1302378,0.55062804,94.0161,09/23.0/2020,2000,g 15.5,4.0
# From MPC 82718
P/2011 W1 (PANSTARRS),e,3.7186,161.7901,282.7300,4.660143,0.0979727,0.28702335,310.7473,09/23.0/2020,2000,g 11.5,4.0
# From MPC 79342
P/2011 Y2 (Boattini),e,6.3714,309.3685,131.9371,6.239665,0.0632357,0.70922899,197.4513,09/23.0/2020,2000,g 15.0,4.0
# From MPC 94669
P/2012 B1 (PANSTARRS),e,7.6159,36.1993,162.5904,6.527352,0.0591015,0.40987737,154.9278,09/23.0/2020,2000,g  9.0,4.0
# From MPC 78590
P/2012 C3 (PANSTARRS),e,9.0920,135.3677,344.9542,9.748681,0.0323806,0.63011148,359.9758,10/06.0/2011,2000,g 13.0,4.0
# From MPC 84931
P/2012 F2 (PANSTARRS),e,14.7264,227.0604,33.2492,6.328313,0.0619116,0.54281721,168.3789,09/23.0/2020,2000,g 12.0,4.0
# From MPEC 2020-R04
C/2012 F3 (PANSTARRS),h,04/07.5391/2015,11.3294,164.5149,104.3402,1.004633,3.470501,2000,6.5,4.0
# From MPC 79344
P/2012 G1 (PANSTARRS),e,11.6925,282.5440,286.1149,4.172871,0.1156250,0.38072240,359.9500,06/01.0/2012,2000,g 15.0,4.0
# From MPC 80898
P/2012 K3 (Gibbs),e,13.1946,125.8087,172.1420,3.624589,0.1428289,0.42348232,57.4896,09/23.0/2020,2000,g 15.0,4.0
# From MPC 88326
P/2012 NJ (La Sagra),e,84.6551,315.5498,338.3249,8.458550,0.0400645,0.84739603,121.1566,09/23.0/2020,2000,g 14.5,4.0
# From MPC 81470
P/2012 O1 (McNaught),e,7.4329,91.9836,238.2152,3.540036,0.1479764,0.59453635,84.4322,09/23.0/2020,2000,g 17.5,4.0
# From MPC 80899
P/2012 O2 (McNaught),e,24.4865,120.6786,183.3991,3.622803,0.1429345,0.53281725,72.3081,09/23.0/2020,2000,g 17.0,4.0
# From MPC 82720
P/2012 O3 (McNaught),e,16.6140,336.4089,344.7039,4.575142,0.1007157,0.64692378,298.1839,09/23.0/2020,2000,g 16.5,4.0
# From MPC 82720
P/2012 S2 (La Sagra),e,8.6873,51.1928,312.5048,4.410770,0.1063977,0.69117084,317.0359,09/23.0/2020,2000,g 17.0,4.0
# From MPC 82720
P/2012 SB6 (Lemmon),e,10.9284,8.2089,14.4064,3.826059,0.1316972,0.40490504,12.5751,09/23.0/2020,2000,g 14.0,4.0
# From MPC 82320
P/2012 T2 (PANSTARRS),e,12.5559,73.7305,310.4318,5.737866,0.0717098,0.16070647,194.5949,09/23.0/2020,2000,g 10.0,4.0
# From MPC 80900
P/2012 T3 (PANSTARRS),e,9.5686,114.4079,195.4406,6.152504,0.0645842,0.61719691,198.0656,09/23.0/2020,2000,g 15.0,4.0
# From MPC 87914
P/2012 TK8 (Tenagra),e,6.3405,288.9697,127.8988,4.129215,0.1174635,0.27432714,313.2981,09/23.0/2020,2000,g 13.0,4.0
# From MPC 82720
P/2012 U2 (PANSTARRS),e,10.7490,185.2734,228.3236,7.142918,0.0516286,0.49776929,148.4894,09/23.0/2020,2000,g 12.5,4.0
# From MPC 84024
P/2012 US27 (Siding Spring),e,39.3294,49.1710,0.8204,5.166247,0.0839347,0.64738651,234.8894,09/23.0/2020,2000,g 13.5,4.0
# From MPC 82721
P/2012 WA34 (Lemmon-PANSTARRS),e,6.1163,94.4550,353.1238,4.763576,0.0947991,0.34261975,264.1604,09/23.0/2020,2000,g 13.5,4.0
# From MPC 84024
P/2013 A2 (Scotti),e,3.3613,355.8137,134.5417,4.013752,0.1225683,0.45439285,342.1308,09/23.0/2020,2000,g 15.5,4.0
# From MPC 82721
P/2013 AL76 (Catalina),e,144.8106,145.9543,27.1243,6.497947,0.0595031,0.68606809,169.1759,09/23.0/2020,2000,g 16.0,4.0
# From MPC115880
C/2013 C2 (Tenagra),e,21.3400,247.5311,309.5448,16.00544,0.0153923,0.42775764,28.2690,09/23.0/2020,2000,g  4.0,4.0
# From MPC 88695
P/2013 EW90 (Tenagra),e,31.7880,160.2959,346.3445,4.116458,0.1180099,0.19493296,342.7996,09/23.0/2020,2000,g 12.0,4.0
# From MPC 91612
P/2013 G1 (Kowalski),e,5.4682,221.4096,51.3728,6.886940,0.0545337,0.51323550,134.9935,09/23.0/2020,2000,g 11.0,4.0
# From MPC 84025
P/2013 G4 (PANSTARRS),e,5.9161,339.6447,214.7150,4.439233,0.1053761,0.40964814,293.1383,09/23.0/2020,2000,g 15.0,4.0
# From MPC 91613
P/2013 J2 (McNaught),e,15.5352,289.4277,37.7232,6.223437,0.0634832,0.65745995,164.0401,09/23.0/2020,2000,g 13.0,4.0
# From MPC 87066
P/2013 J4 (PANSTARRS),e,5.0352,84.0011,118.7706,2.475100,0.2531133,0.23099371,359.9443,11/04.0/2013,2000,g 14.0,4.0
# From MPC 86229
P/2013 N3 (PANSTARRS),e,2.1730,17.4991,323.8453,7.390840,0.0490528,0.59301622,118.3304,09/23.0/2020,2000,g 13.0,4.0
# From MPC 85834
P/2013 N5 (PANSTARRS),e,23.4165,187.1688,176.8836,6.799669,0.0555869,0.73172452,146.7630,09/23.0/2020,2000,g 17.0,4.0
# From MPC xxxxx
P/2013 O2 (PANSTARRS),e,13.3186,207.1504,214.2694,3.789445,0.1336105,0.44680043,327.7277,09/23.0/2020,2000,g 13.5,4.0
# From MPC 85834
P/2013 P1 (PANSTARRS),e,18.7196,160.6245,138.0814,8.567599,0.0393021,0.60612879,108.5614,09/23.0/2020,2000,g 12.0,4.0
# From MPC 94671
P/2013 R3 (Catalina-PANSTARRS),e,0.8653,342.0012,11.1551,3.034007,0.1865002,0.27502780,122.4013,09/23.0/2020,2000,g 14.0,4.0
# From unp
P/2013 R3-A (Catalina-PANSTARRS),e,0.8647,341.9681,11.1941,3.033865,0.1865132,0.27499719,122.4327,09/23.0/2020,2000,g  9.0,4.0
# From MPEC 2015-M77
P/2013 R3-B (Catalina-PANSTARRS),e,0.8660,342.0239,11.1290,3.034083,0.1864931,0.27504286,122.3845,09/23.0/2020,2000,g  9.0,4.0
# From MPC 85835
P/2013 T1 (PANSTARRS),e,24.2712,10.0906,346.0743,5.861845,0.0694469,0.62350386,181.2608,09/23.0/2020,2000,g 16.5,4.0
# From MPC 86643
P/2013 T2 (Schwartz),e,9.4559,0.8189,345.4743,3.489094,0.1512290,0.50115393,44.9785,09/23.0/2020,2000,g 16.0,4.0
# From MPC 88696
P/2013 TL117 (Lemmon),e,9.3648,3.3151,112.2471,3.609987,0.1436963,0.68922042,346.7536,09/23.0/2020,2000,g 17.5,4.0
# From MPC110080
C/2013 US10 (Catalina),h,11/16.8092/2015,148.7685,186.4003,340.5898,1.000624,0.821002,2000,4.4,4.0
# From MPC111767
C/2013 V4 (Catalina),e,67.8899,55.6072,40.3262,3125,0.0000056,0.99834243,0.0000,10/05.4290/2015,2000,g  6.0,4.0
# From MPC 91613
P/2013 W1 (PANSTARRS),e,4.6955,117.8478,1.2953,3.491192,0.1510927,0.59286418,1.9172,09/23.0/2020,2000,g 17.5,4.0
# From MPC111767
C/2013 X1 (PANSTARRS),h,04/19.4666/2016,163.1939,131.5731,165.1583,1.000422,1.322645,2000,10.5,2.0
# From MPC101095
P/2013 YG46 (Spacewatch),e,7.8559,48.8712,242.4878,3.276464,0.1661866,0.45491248,221.2403,09/23.0/2020,2000,g 10.0,4.0
# From MPC 89728
P/2014 A2 (Hill),e,24.5443,106.6286,356.2528,5.925917,0.0683236,0.64557689,173.1042,09/23.0/2020,2000,g 15.0,4.0
# From MPC 92981
P/2014 A3 (PANSTARRS),e,13.6805,230.2260,212.7563,4.632112,0.0988634,0.24658019,267.4682,09/23.0/2020,2000,g 12.0,4.0
# From MPC108592
C/2014 A4 (SONEAR),e,121.3830,29.6568,356.5738,2566,0.0000076,0.99837322,0.0000,09/03.8128/2015,2000,g  6.0,4.0
# From MPC119994
C/2014 B1 (Schwartz),e,28.4044,161.4107,345.7934,12460,0.0000007,0.99923316,0.0000,09/09.2101/2017,2000,g  4.0,4.0
# From MPC102095
P/2014 C1 (TOTAS),e,2.6846,167.7687,24.0804,3.041475,0.1858137,0.44742582,98.2310,09/23.0/2020,2000,g 15.5,4.0
# From MPC 91614
P/2014 E1 (Larson),e,15.9762,39.0314,186.0207,3.712003,0.1378134,0.42351596,318.6270,09/23.0/2020,2000,g 14.0,4.0
# From MPC 94280
C/2014 F3 (Sheppard-Trujillo),e,6.5701,326.7926,2.8995,15.98055,0.0154282,0.64370623,356.4291,09/23.0/2020,2000,g  6.0,4.0
# From MPC 98560
P/2014 L2 (NEOWISE),e,5.1970,149.3501,182.6389,6.303710,0.0622744,0.64805087,140.6444,09/23.0/2020,2000,g 12.0,4.0
# From MPC 90769
P/2014 L3 (Hill),e,6.2779,115.4694,178.6293,8.166299,0.0422344,0.77392024,96.1086,09/23.0/2020,2000,g 16.0,4.0
# From MPC103844
